FLOCK 4G-21             
1 62651U 25009AU  26068.19487675  .00013648  00000+0  49619-3 0  9998
2 62651  97.4032 151.1274 0000465 329.5782  30.5431 15.28381075 63677
STARLINK-36546          
1 67459U 26008Q   26068.46611758  .00024039  00000+0  87950-3 0  9996
2 67459  43.0026 206.8678 0003774 299.9737  60.0740 15.27603549  9538
